IRIDIUM 116             
1 43072U 17083C   24171.52934286  .00000054  00000+0  12221-4 0  9999
2 43072  86.3964 266.0830 0002337  95.3540 264.7922 14.34217831339876
IRIDIUM 130             
1 43073U 17083D   24171.35809243  .00000016  00000+0 -12516-5 0  9992
2 43073  86.3970 266.3592 0002286  96.6296 263.5160 14.34216995339799
IRIDIUM 151             
1 43074U 17083E   24171.54202814  .00000428  00000+0  14590-3 0  9993
2 43074  86.3965 266.1190 0002221  88.1746 271.9704 14.34217618339847
IRIDIUM 134             
1 43075U 17083F   24171.51031470  .00000230  00000+0  75122-4 0  9999
2 43075  86.3966 266.1305 0002380  99.5486 260.5979 14.34217173339800
IRIDIUM 137             
1 43076U 17083G   24171.52300055  .00000052  00000+0  11411-4 0  9992
2 43076  86.3968 266.2032 0002641  86.6886 273.4612 14.34218056339877
IRIDIUM 141             
1 43077U 17083H   24171.51664948  .00000342  00000+0  11512-3 0  9999
2 43077  86.3963 266.0779 0002081  96.0648 264.0785 14.34221597339879
IRIDIUM 153             
1 43078U 17083J   24171.60835257  .00000293  00000+0  97560-4 0  9996
2 43078  86.3982 234.5028 0001695  96.2337 263.9051 14.34214505340995
IRIDIUM 131             
1 43079U 17083K   24171.50397157  .00000328  00000+0  10997-3 0  9995
2 43079  86.3967 266.2206 0002292  90.8889 269.2570 14.34219054339802
